0 ARIANE 2 DEB
1 33551U 89006AT  13281.92284616 -.00000116  00000-0  00000+0 0  5346
2 33551 008.7257 092.0749 6894447 126.6465 119.3130 02.20945895 66128
0 ARIANE 2 DEB
1 33551U 89006AT  13287.64871963 -.00000223  00000-0  00000+0 0  5358
2 33551 008.7467 090.1921 6895621 130.2454 353.6534 02.20946670 66253
0 ARIANE 2 DEB
1 33551U 89006AT  13293.91654295 -.00000165  00000-0  00000+0 0  5368
2 33551 008.7705 088.1346 6896817 134.1820 299.0811 02.20946950 66391
0 ARIANE 2 DEB
1 33551U 89006AT  13295.77565574 -.00000153  00000-0  00000+0 0  5373
2 33551 008.7759 087.5382 6896609 135.3294 337.8165 02.20945537 66438
